{
    "links": {
        "self": "http://www.neowsapp.com/rest/v1/neo/3440793?api_key=iIulBulltgU6a56xZRHN4H3l9WmuAYTsLGpBGhQ2"
    },
    "id": "3440793",
    "neo_reference_id": "3440793",
    "name": "(2008 WK96)",
    "designation": "2008 WK96",
    "nasa_jpl_url": "http://ssd.jpl.nasa.gov/sbdb.cgi?sstr=3440793",
    "absolute_magnitude_h": 23.1,
    "estimated_diameter": {
        "kilometers": {
            "estimated_diameter_min": 0.063760979,
            "estimated_diameter_max": 0.1425738833
        },
        "meters": {
            "estimated_diameter_min": 63.7609789875,
            "estimated_diameter_max": 142.5738833281
        },
        "miles": {
            "estimated_diameter_min": 0.0396192233,
            "estimated_diameter_max": 0.0885912765
        },
        "feet": {
            "estimated_diameter_min": 209.1895703015,
            "estimated_diameter_max": 467.7620993781
        }
    },
    "is_potentially_hazardous_asteroid": false,
    "close_approach_data": [
        {
            "close_approach_date": "2001-12-23",
            "close_approach_date_full": "2001-Dec-23 09:50",
            "epoch_date_close_approach": 1009101000000,
            "relative_velocity": {
                "kilometers_per_second": "22.7351903977",
                "kilometers_per_hour": "81846.6854317081",
                "miles_per_hour": "50856.3474006077"
            },
            "miss_distance": {
                "astronomical": "0.3739907589",
                "lunar": "145.4824052121",
                "kilometers": "55948220.931123543",
                "miles": "34764612.4301011734"
            },
            "orbiting_body": "Earth"
        },
        {
            "close_approach_date": "2008-11-23",
            "close_approach_date_full": "2008-Nov-23 08:12",
            "epoch_date_close_approach": 1227427920000,
            "relative_velocity": {
                "kilometers_per_second": "10.8816309826",
                "kilometers_per_hour": "39173.8715372203",
                "miles_per_hour": "24341.1203448911"
            },
            "miss_distance": {
                "astronomical": "0.0394694138",
                "lunar": "15.3536019682",
                "kilometers": "5904540.234628606",
                "miles": "3668911.1721265228"
            },
            "orbiting_body": "Earth"
        },
        {
            "close_approach_date": "2015-08-11",
            "close_approach_date_full": "2015-Aug-11 09:04",
            "epoch_date_close_approach": 1439283840000,
            "relative_velocity": {
                "kilometers_per_second": "12.3447754056",
                "kilometers_per_hour": "44441.1914600174",
                "miles_per_hour": "27614.0281046981"
            },
            "miss_distance": {
                "astronomical": "0.1467487651",
                "lunar": "57.0852696239",
                "kilometers": "21953302.684090337",
                "miles": "13641149.7393751706"
            },
            "orbiting_body": "Earth"
        },
        {
            "close_approach_date": "2031-12-27",
            "close_approach_date_full": "2031-Dec-27 20:24",
            "epoch_date_close_approach": 1956169440000,
            "relative_velocity": {
                "kilometers_per_second": "24.81897723",
                "kilometers_per_hour": "89348.318028122",
                "miles_per_hour": "55517.5701658628"
            },
            "miss_distance": {
                "astronomical": "0.4449502478",
                "lunar": "173.0856463942",
                "kilometers": "66563609.326852186",
                "miles": "41360708.9141487268"
            },
            "orbiting_body": "Earth"
        }
    ],
    "orbital_data": {
        "orbit_id": "15",
        "orbit_determination_date": "2017-04-06 09:02:01",
        "first_observation_date": "2008-11-30",
        "last_observation_date": "2008-12-30",
        "data_arc_in_days": 30,
        "observations_used": 48,
        "orbit_uncertainty": "7",
        "minimum_orbit_intersection": ".00039676",
        "jupiter_tisserand_invariant": "3.974",
        "epoch_osculation": "2459000.5",
        "eccentricity": ".4990843986918834",
        "semi_major_axis": "1.746155745551699",
        "inclination": "8.222389644998708",
        "ascending_node_longitude": "66.55357667409993",
        "orbital_period": "842.7968287937789",
        "perihelion_distance": ".8746766552606522",
        "perihelion_argument": "311.1596808308071",
        "aphelion_distance": "2.617634835842746",
        "perihelion_time": "2458975.300112374360",
        "mean_anomaly": "10.76411210304917",
        "mean_motion": ".4271492104630204",
        "equinox": "J2000",
        "orbit_class": {
            "orbit_class_type": "APO",
            "orbit_class_description": "Near-Earth asteroid orbits which cross the Earth’s orbit similar to that of 1862 Apollo",
            "orbit_class_range": "a (semi-major axis) > 1.0 AU; q (perihelion) < 1.017 AU"
        }
    },
    "is_sentry_object": false
}